CCSDS_OMM_VERS = 2.0
CREATION_DATE  = 
ORIGINATOR     = 

OBJECT_NAME    = STARLINK-36438
OBJECT_ID      = 2026-020J
CENTER_NAME    = EARTH
REF_FRAME      = TEME
TIME_SYSTEM    = UTC
MEAN_ELEMENT_THEORY = SGP/SGP4

EPOCH          = 2026-02-09T14:00:01.000224
MEAN_MOTION    = 15.81965844
ECCENTRICITY   = .00017164
INCLINATION    = 42.9996
RA_OF_ASC_NODE = 313.0504
ARG_OF_PERICENTER = 256.6514
MEAN_ANOMALY   = 313.5697

EPHEMERIS_TYPE = 0
CLASSIFICATION_TYPE = U
NORAD_CAT_ID   = 67625
ELEMENT_SET_NO = 999
REV_AT_EPOCH   = 287
BSTAR          = .3758259E-3
MEAN_MOTION_DOT = .79143E-3
MEAN_MOTION_DDOT = 0

CCSDS_OMM_VERS = 2.0
CREATION_DATE  = 
ORIGINATOR     = 

OBJECT_NAME    = STARLINK-36436
OBJECT_ID      = 2026-020K
CENTER_NAME    = EARTH
REF_FRAME      = TEME
TIME_SYSTEM    = UTC
MEAN_ELEMENT_THEORY = SGP/SGP4

EPOCH          = 2026-02-09T14:00:01.000224
MEAN_MOTION    = 15.81970024
ECCENTRICITY   = .0001824
INCLINATION    = 42.9992
RA_OF_ASC_NODE = 313.0307
ARG_OF_PERICENTER = 273.1235
MEAN_ANOMALY   = 304.9158

EPHEMERIS_TYPE = 0
CLASSIFICATION_TYPE = U
NORAD_CAT_ID   = 67626
ELEMENT_SET_NO = 999
REV_AT_EPOCH   = 287
BSTAR          = .34064329E-3
MEAN_MOTION_DOT = .71636E-3
MEAN_MOTION_DDOT = 0

CCSDS_OMM_VERS = 2.0
CREATION_DATE  = 
ORIGINATOR     = 

OBJECT_NAME    = STARLINK-36502
OBJECT_ID      = 2026-020L
CENTER_NAME    = EARTH
REF_FRAME      = TEME
TIME_SYSTEM    = UTC
MEAN_ELEMENT_THEORY = SGP/SGP4

EPOCH          = 2026-02-09T14:00:01.000224
MEAN_MOTION    = 15.81938524
ECCENTRICITY   = .00019661
INCLINATION    = 42.9995
RA_OF_ASC_NODE = 313.0411
ARG_OF_PERICENTER = 256.4352
MEAN_ANOMALY   = 317.4416

EPHEMERIS_TYPE = 0
CLASSIFICATION_TYPE = U
NORAD_CAT_ID   = 67627
ELEMENT_SET_NO = 999
REV_AT_EPOCH   = 287
BSTAR          = .54762627E-3
MEAN_MOTION_DOT = .115914E-2
MEAN_MOTION_DDOT = 0

CCSDS_OMM_VERS = 2.0
CREATION_DATE  = 
ORIGINATOR     = 

OBJECT_NAME    = STARLINK-36532
OBJECT_ID      = 2026-020M
CENTER_NAME    = EARTH
REF_FRAME      = TEME
TIME_SYSTEM    = UTC
MEAN_ELEMENT_THEORY = SGP/SGP4

EPOCH          = 2026-02-09T14:00:01.000224
MEAN_MOTION    = 15.81999422
ECCENTRICITY   = .00027825
INCLINATION    = 42.9991
RA_OF_ASC_NODE = 313.0129
ARG_OF_PERICENTER = 272.0727
MEAN_ANOMALY   = 312.9744

EPHEMERIS_TYPE = 0
CLASSIFICATION_TYPE = U
NORAD_CAT_ID   = 67628
ELEMENT_SET_NO = 999
REV_AT_EPOCH   = 287
BSTAR          = .16209078E-3
MEAN_MOTION_DOT = .33708E-3
MEAN_MOTION_DDOT = 0

CCSDS_OMM_VERS = 2.0
CREATION_DATE  = 
ORIGINATOR     = 

OBJECT_NAME    = STARLINK-36367
OBJECT_ID      = 2026-020N
CENTER_NAME    = EARTH
REF_FRAME      = TEME
TIME_SYSTEM    = UTC
MEAN_ELEMENT_THEORY = SGP/SGP4

EPOCH          = 2026-02-09T14:00:01.000224
MEAN_MOTION    = 15.81987784
ECCENTRICITY   = .00016763
INCLINATION    = 42.9992
RA_OF_ASC_NODE = 313.0199
ARG_OF_PERICENTER = 260.3764
MEAN_ANOMALY   = 321.8812

EPHEMERIS_TYPE = 0
CLASSIFICATION_TYPE = U
NORAD_CAT_ID   = 67629
ELEMENT_SET_NO = 999
REV_AT_EPOCH   = 287
BSTAR          = .1210378E-3
MEAN_MOTION_DOT = .24993E-3
MEAN_MOTION_DDOT = 0

CCSDS_OMM_VERS = 2.0
CREATION_DATE  = 
ORIGINATOR     = 

OBJECT_NAME    = STARLINK-36416
OBJECT_ID      = 2026-020P
CENTER_NAME    = EARTH
REF_FRAME      = TEME
TIME_SYSTEM    = UTC
MEAN_ELEMENT_THEORY = SGP/SGP4

EPOCH          = 2026-02-09T14:00:01.000224
MEAN_MOTION    = 15.81964390
ECCENTRICITY   = .00015355
INCLINATION    = 42.9992
RA_OF_ASC_NODE = 313.0058
ARG_OF_PERICENTER = 274.0833
MEAN_ANOMALY   = 313.8126

EPHEMERIS_TYPE = 0
CLASSIFICATION_TYPE = U
NORAD_CAT_ID   = 67630
ELEMENT_SET_NO = 999
REV_AT_EPOCH   = 287
BSTAR          = .37325733E-3
MEAN_MOTION_DOT = .78587E-3
MEAN_MOTION_DDOT = 0

CCSDS_OMM_VERS = 2.0
CREATION_DATE  = 
ORIGINATOR     = 

OBJECT_NAME    = STARLINK-36527
OBJECT_ID      = 2026-020Q
CENTER_NAME    = EARTH
REF_FRAME      = TEME
TIME_SYSTEM    = UTC
MEAN_ELEMENT_THEORY = SGP/SGP4

EPOCH          = 2026-02-09T14:00:01.000224
MEAN_MOTION    = 15.81945249
ECCENTRICITY   = .000248
INCLINATION    = 42.9992
RA_OF_ASC_NODE = 312.9973
ARG_OF_PERICENTER = 264.6523
MEAN_ANOMALY   = 326.6424

EPHEMERIS_TYPE = 0
CLASSIFICATION_TYPE = U
NORAD_CAT_ID   = 67631
ELEMENT_SET_NO = 999
REV_AT_EPOCH   = 287
BSTAR          = .53652119E-3
MEAN_MOTION_DOT = .113564E-2
MEAN_MOTION_DDOT = 0

CCSDS_OMM_VERS = 2.0
CREATION_DATE  = 
ORIGINATOR     = 

OBJECT_NAME    = STARLINK-36633
OBJECT_ID      = 2026-020R
CENTER_NAME    = EARTH
REF_FRAME      = TEME
TIME_SYSTEM    = UTC
MEAN_ELEMENT_THEORY = SGP/SGP4

EPOCH          = 2026-02-09T14:00:01.000224
MEAN_MOTION    = 15.81970625
ECCENTRICITY   = .00018969
INCLINATION    = 42.9993
RA_OF_ASC_NODE = 312.9869
ARG_OF_PERICENTER = 259.8663
MEAN_ANOMALY   = 335.5967

EPHEMERIS_TYPE = 0
CLASSIFICATION_TYPE = U
NORAD_CAT_ID   = 67632
ELEMENT_SET_NO = 999
REV_AT_EPOCH   = 287
BSTAR          = .40145797E-3
MEAN_MOTION_DOT = .84651E-3
MEAN_MOTION_DDOT = 0

CCSDS_OMM_VERS = 2.0
CREATION_DATE  = 
ORIGINATOR     = 

OBJECT_NAME    = STARLINK-36637
OBJECT_ID      = 2026-020S
CENTER_NAME    = EARTH
REF_FRAME      = TEME
TIME_SYSTEM    = UTC
MEAN_ELEMENT_THEORY = SGP/SGP4

EPOCH          = 2026-02-09T14:00:01.000224
MEAN_MOTION    = 15.82024731
ECCENTRICITY   = .00018752
INCLINATION    = 42.9993
RA_OF_ASC_NODE = 312.9785
ARG_OF_PERICENTER = 258.0832
MEAN_ANOMALY   = 340.7817

EPHEMERIS_TYPE = 0
CLASSIFICATION_TYPE = U
NORAD_CAT_ID   = 67633
ELEMENT_SET_NO = 999
REV_AT_EPOCH   = 287
BSTAR          = -.98801096E-4
MEAN_MOTION_DOT = -.21296E-3
MEAN_MOTION_DDOT = 0

CCSDS_OMM_VERS = 2.0
CREATION_DATE  = 
ORIGINATOR     = 

OBJECT_NAME    = STARLINK-36617
OBJECT_ID      = 2026-020T
CENTER_NAME    = EARTH
REF_FRAME      = TEME
TIME_SYSTEM    = UTC
MEAN_ELEMENT_THEORY = SGP/SGP4

EPOCH          = 2026-02-09T14:00:01.000224
MEAN_MOTION    = 15.81995682
ECCENTRICITY   = .00023824
INCLINATION    = 42.9995
RA_OF_ASC_NODE = 312.9683
ARG_OF_PERICENTER = 281.3129
MEAN_ANOMALY   = 321.4915

EPHEMERIS_TYPE = 0
CLASSIFICATION_TYPE = U
NORAD_CAT_ID   = 67634
ELEMENT_SET_NO = 999
REV_AT_EPOCH   = 287
BSTAR          = .11191202E-3
MEAN_MOTION_DOT = .23073E-3
MEAN_MOTION_DDOT = 0

CCSDS_OMM_VERS = 2.0
CREATION_DATE  = 
ORIGINATOR     = 

OBJECT_NAME    = STARLINK-36627
OBJECT_ID      = 2026-020U
CENTER_NAME    = EARTH
REF_FRAME      = TEME
TIME_SYSTEM    = UTC
MEAN_ELEMENT_THEORY = SGP/SGP4

EPOCH          = 2026-02-09T14:00:01.000224
MEAN_MOTION    = 15.81997486
ECCENTRICITY   = .000172
INCLINATION    = 42.9993
RA_OF_ASC_NODE = 312.9332
ARG_OF_PERICENTER = 268.2320
MEAN_ANOMALY   = 348.4538

EPHEMERIS_TYPE = 0
CLASSIFICATION_TYPE = U
NORAD_CAT_ID   = 67635
ELEMENT_SET_NO = 999
REV_AT_EPOCH   = 287
BSTAR          = .11928928E-3
MEAN_MOTION_DOT = .24635E-3
MEAN_MOTION_DDOT = 0

CCSDS_OMM_VERS = 2.0
CREATION_DATE  = 
ORIGINATOR     = 

OBJECT_NAME    = STARLINK-36624
OBJECT_ID      = 2026-020V
CENTER_NAME    = EARTH
REF_FRAME      = TEME
TIME_SYSTEM    = UTC
MEAN_ELEMENT_THEORY = SGP/SGP4

EPOCH          = 2026-02-09T14:00:01.000224
MEAN_MOTION    = 15.81953105
ECCENTRICITY   = .00014917
INCLINATION    = 42.9995
RA_OF_ASC_NODE = 312.9419
ARG_OF_PERICENTER = 260.7315
MEAN_ANOMALY   = 352.6922

EPHEMERIS_TYPE = 0
CLASSIFICATION_TYPE = U
NORAD_CAT_ID   = 67636
ELEMENT_SET_NO = 999
REV_AT_EPOCH   = 287
BSTAR          = .68674626E-3
MEAN_MOTION_DOT = .146103E-2
MEAN_MOTION_DDOT = 0

