STARLINK-36438          
1 67625U 26020J   26040.58334491  .00079143  00000+0  37583-3 0  9997
2 67625  42.9996 313.0504 0001716 256.6514 313.5697 15.81965844  2879
STARLINK-36436          
1 67626U 26020K   26040.58334491  .00071636  00000+0  34064-3 0  9998
2 67626  42.9992 313.0307 0001824 273.1235 304.9158 15.81970024  2873
STARLINK-36502          
1 67627U 26020L   26040.58334491  .00115914  00000+0  54763-3 0  9995
2 67627  42.9995 313.0411 0001966 256.4352 317.4416 15.81938524  2879
STARLINK-36532          
1 67628U 26020M   26040.58334491  .00033708  00000+0  16209-3 0  9999
2 67628  42.9991 313.0129 0002782 272.0727 312.9744 15.81999422  2877
STARLINK-36367          
1 67629U 26020N   26040.58334491  .00024993  00000+0  12104-3 0  9996
2 67629  42.9992 313.0199 0001676 260.3764 321.8812 15.81987784  2871
STARLINK-36416          
1 67630U 26020P   26040.58334491  .00078587  00000+0  37326-3 0  9999
2 67630  42.9992 313.0058 0001535 274.0833 313.8126 15.81964390  2877
STARLINK-36527          
1 67631U 26020Q   26040.58334491  .00113564  00000+0  53652-3 0  9995
2 67631  42.9992 312.9973 0002480 264.6523 326.6424 15.81945249  2878
STARLINK-36633          
1 67632U 26020R   26040.58334491  .00084651  00000+0  40146-3 0  9994
2 67632  42.9993 312.9869 0001896 259.8663 335.5967 15.81970625  2872
STARLINK-36637          
1 67633U 26020S   26040.58334491 -.00021296  00000+0 -98801-4 0  9995
2 67633  42.9993 312.9785 0001875 258.0832 340.7817 15.82024731  2877
STARLINK-36617          
1 67634U 26020T   26040.58334491  .00023073  00000+0  11191-3 0  9995
2 67634  42.9995 312.9683 0002382 281.3129 321.4915 15.81995682  2875
STARLINK-36627          
1 67635U 26020U   26040.58334491  .00024635  00000+0  11929-3 0  9990
2 67635  42.9993 312.9332 0001720 268.2320 348.4538 15.81997486  2871
STARLINK-36624          
1 67636U 26020V   26040.58334491  .00146103  00000+0  68675-3 0  9996
2 67636  42.9995 312.9419 0001491 260.7315 352.6922 15.81953105  2870
